FLOCK 4G-17             
1 62681U 25009CA  26187.16829204  .00011872  00000+0  41172-3 0  9991
2 62681  97.3916 268.4404 0003368 254.4090 105.6779 15.29954685139453
FLOCK 4G-33             
1 62685U 25009CE  26187.20404987  .00006071  00000+0  24084-3 0  9995
2 62685  97.3939 266.8589 0004018 255.2532 104.8261 15.25729633 81701
FLOCK 4H-1              
1 66704U 25276AQ  26187.19767775  .00007096  00000+0  32514-3 0  9997
2 66704  97.4167 260.5846 0001058 201.7899 158.3291 15.20777082 33329
FLOCK 4H-2              
1 66705U 25276AR  26187.17297176  .00006771  00000+0  30800-3 0  9994
2 66705  97.4162 260.6056 0000713 158.9819 201.1446 15.21045465 33324
FLOCK 4H-3              
1 66706U 25276AS  26187.15779439  .00007168  00000+0  33422-3 0  9994
2 66706  97.4232 260.5192 0002458 301.4318  58.6677 15.20168082 33309
FLOCK 4H-4              
1 66707U 25276AT  26187.19262071  .00007778  00000+0  36457-3 0  9996
2 66707  97.4214 260.4254 0003097 302.2006  57.8928 15.19956761 33308
FLOCK 4H-5              
1 66708U 25276AU  26187.19025375  .00007006  00000+0  32054-3 0  9994
2 66708  97.4165 260.5977 0000908 127.9735 232.1583 15.20832669 33325
FLOCK 4H-6              
1 66709U 25276AV  26187.16864190  .00006861  00000+0  31673-3 0  9992
2 66709  97.4216 260.6181 0001743 251.9113 108.1932 15.20530351 33319
FLOCK 4H-7              
1 66710U 25276AW  26187.14908469  .00007650  00000+0  35515-3 0  9996
2 66710  97.4175 260.3645 0001408   2.3264 357.7978 15.20299243 33303
FLOCK 4H-8              
1 66711U 25276AX  26187.14061995  .00007908  00000+0  36581-3 0  9991
2 66711  97.4213 260.4996 0002188 326.0458  34.0637 15.20408694 33303
FLOCK 4H-9              
1 66712U 25276AY  26187.15620258  .00007948  00000+0  36450-3 0  9995
2 66712  97.4204 260.6064 0001885 264.1193  95.9827 15.20706173 33314
FLOCK 4H-10             
1 66713U 25276AZ  26187.17744615  .00007389  00000+0  34524-3 0  9991
2 66713  97.4179 260.3482 0002937 304.9210  55.1749 15.20083521 33304
FLOCK 4H-11             
1 66714U 25276BA  26187.15531968  .00015159  00000+0  64377-3 0  9998
2 66714  97.4187 260.8761 0001311 312.5796  47.5330 15.23163990 33334
FLOCK 4H-12             
1 66715U 25276BB  26187.14341600  .00008054  00000+0  36902-3 0  9999
2 66715  97.4177 260.5325 0000900 217.8728 142.2445 15.20733287 33623
FLOCK 4H-13             
1 66716U 25276BC  26187.18041995  .00005733  00000+0  26287-3 0  9994
2 66716  97.4214 260.7371 0001233 152.3563 207.7739 15.20834304 33321
FLOCK 4H-14             
1 66717U 25276BD  26187.14353679  .00007947  00000+0  35839-3 0  9998
2 66717  97.4194 260.7433 0001182 148.5629 211.5678 15.21286580 32570
