{"fetched_at":"2026-07-06T18:35:16.154Z","source":"https://celestrak.org/NORAD/elements/gp.php?GROUP=planet&FORMAT=JSON","constellation":"superdove","records":[{"OBJECT_NAME":"FLOCK 4G-17","OBJECT_ID":"2025-009CA","EPOCH":"2026-07-06T04:02:20.432256","CLASSIFICATION_TYPE":"U","MEAN_MOTION":15.29954685,"ECCENTRICITY":0.00033689,"INCLINATION":97.3916,"RA_OF_ASC_NODE":268.4404,"ARG_OF_PERICENTER":254.409,"MEAN_ANOMALY":105.6779,"EPHEMERIS_TYPE":0,"NORAD_CAT_ID":62681,"ELEMENT_SET_NO":999,"REV_AT_EPOCH":13945,"BSTAR":0.00041172024,"MEAN_MOTION_DOT":0.00011872,"MEAN_MOTION_DDOT":0},{"OBJECT_NAME":"FLOCK 4G-33","OBJECT_ID":"2025-009CE","EPOCH":"2026-07-06T04:53:49.908768","CLASSIFICATION_TYPE":"U","MEAN_MOTION":15.25729633,"ECCENTRICITY":0.00040185,"INCLINATION":97.3939,"RA_OF_ASC_NODE":266.8589,"ARG_OF_PERICENTER":255.2532,"MEAN_ANOMALY":104.8261,"EPHEMERIS_TYPE":0,"NORAD_CAT_ID":62685,"ELEMENT_SET_NO":999,"REV_AT_EPOCH":8170,"BSTAR":0.0002408414,"MEAN_MOTION_DOT":0.00006071,"MEAN_MOTION_DDOT":0},{"OBJECT_NAME":"FLOCK 4H-1","OBJECT_ID":"2025-276AQ","EPOCH":"2026-07-06T04:44:39.357600","CLASSIFICATION_TYPE":"U","MEAN_MOTION":15.20777082,"ECCENTRICITY":0.00010588,"INCLINATION":97.4167,"RA_OF_ASC_NODE":260.5846,"ARG_OF_PERICENTER":201.7899,"MEAN_ANOMALY":158.3291,"EPHEMERIS_TYPE":0,"NORAD_CAT_ID":66704,"ELEMENT_SET_NO":999,"REV_AT_EPOCH":3332,"BSTAR":0.0003251406,"MEAN_MOTION_DOT":0.00007096,"MEAN_MOTION_DDOT":0},{"OBJECT_NAME":"FLOCK 4H-2","OBJECT_ID":"2025-276AR","EPOCH":"2026-07-06T04:09:04.760064","CLASSIFICATION_TYPE":"U","MEAN_MOTION":15.21045465,"ECCENTRICITY":0.00007139,"INCLINATION":97.4162,"RA_OF_ASC_NODE":260.6056,"ARG_OF_PERICENTER":158.9819,"MEAN_ANOMALY":201.1446,"EPHEMERIS_TYPE":0,"NORAD_CAT_ID":66705,"ELEMENT_SET_NO":999,"REV_AT_EPOCH":3332,"BSTAR":0.00030799757,"MEAN_MOTION_DOT":0.00006771,"MEAN_MOTION_DDOT":0},{"OBJECT_NAME":"FLOCK 4H-3","OBJECT_ID":"2025-276AS","EPOCH":"2026-07-06T03:47:13.435296","CLASSIFICATION_TYPE":"U","MEAN_MOTION":15.20168082,"ECCENTRICITY":0.00024589,"INCLINATION":97.4232,"RA_OF_ASC_NODE":260.5192,"ARG_OF_PERICENTER":301.4318,"MEAN_ANOMALY":58.6677,"EPHEMERIS_TYPE":0,"NORAD_CAT_ID":66706,"ELEMENT_SET_NO":999,"REV_AT_EPOCH":3330,"BSTAR":0.00033422142,"MEAN_MOTION_DOT":0.00007168,"MEAN_MOTION_DDOT":0},{"OBJECT_NAME":"FLOCK 4H-4","OBJECT_ID":"2025-276AT","EPOCH":"2026-07-06T04:37:22.429344","CLASSIFICATION_TYPE":"U","MEAN_MOTION":15.19956761,"ECCENTRICITY":0.00030975,"INCLINATION":97.4214,"RA_OF_ASC_NODE":260.4254,"ARG_OF_PERICENTER":302.2006,"MEAN_ANOMALY":57.8928,"EPHEMERIS_TYPE":0,"NORAD_CAT_ID":66707,"ELEMENT_SET_NO":999,"REV_AT_EPOCH":3330,"BSTAR":0.00036457014,"MEAN_MOTION_DOT":0.00007778,"MEAN_MOTION_DDOT":0},{"OBJECT_NAME":"FLOCK 4H-5","OBJECT_ID":"2025-276AU","EPOCH":"2026-07-06T04:33:57.924000","CLASSIFICATION_TYPE":"U","MEAN_MOTION":15.20832669,"ECCENTRICITY":0.0000908,"INCLINATION":97.4165,"RA_OF_ASC_NODE":260.5977,"ARG_OF_PERICENTER":127.9735,"MEAN_ANOMALY":232.1583,"EPHEMERIS_TYPE":0,"NORAD_CAT_ID":66708,"ELEMENT_SET_NO":999,"REV_AT_EPOCH":3332,"BSTAR":0.00032054415,"MEAN_MOTION_DOT":0.00007006,"MEAN_MOTION_DDOT":0},{"OBJECT_NAME":"FLOCK 4H-6","OBJECT_ID":"2025-276AV","EPOCH":"2026-07-06T04:02:50.660160","CLASSIFICATION_TYPE":"U","MEAN_MOTION":15.20530351,"ECCENTRICITY":0.00017431,"INCLINATION":97.4216,"RA_OF_ASC_NODE":260.6181,"ARG_OF_PERICENTER":251.9113,"MEAN_ANOMALY":108.1932,"EPHEMERIS_TYPE":0,"NORAD_CAT_ID":66709,"ELEMENT_SET_NO":999,"REV_AT_EPOCH":3331,"BSTAR":0.0003167283,"MEAN_MOTION_DOT":0.00006861,"MEAN_MOTION_DDOT":0},{"OBJECT_NAME":"FLOCK 4H-7","OBJECT_ID":"2025-276AW","EPOCH":"2026-07-06T03:34:40.917216","CLASSIFICATION_TYPE":"U","MEAN_MOTION":15.20299243,"ECCENTRICITY":0.00014089,"INCLINATION":97.4175,"RA_OF_ASC_NODE":260.3645,"ARG_OF_PERICENTER":2.3264,"MEAN_ANOMALY":357.7978,"EPHEMERIS_TYPE":0,"NORAD_CAT_ID":66710,"ELEMENT_SET_NO":999,"REV_AT_EPOCH":3330,"BSTAR":0.00035515156,"MEAN_MOTION_DOT":0.0000765,"MEAN_MOTION_DDOT":0},{"OBJECT_NAME":"FLOCK 4H-8","OBJECT_ID":"2025-276AX","EPOCH":"2026-07-06T03:22:29.563680","CLASSIFICATION_TYPE":"U","MEAN_MOTION":15.20408694,"ECCENTRICITY":0.00021881,"INCLINATION":97.4213,"RA_OF_ASC_NODE":260.4996,"ARG_OF_PERICENTER":326.0458,"MEAN_ANOMALY":34.0637,"EPHEMERIS_TYPE":0,"NORAD_CAT_ID":66711,"ELEMENT_SET_NO":999,"REV_AT_EPOCH":3330,"BSTAR":0.00036580714,"MEAN_MOTION_DOT":0.00007908,"MEAN_MOTION_DDOT":0},{"OBJECT_NAME":"FLOCK 4H-9","OBJECT_ID":"2025-276AY","EPOCH":"2026-07-06T03:44:55.902912","CLASSIFICATION_TYPE":"U","MEAN_MOTION":15.20706173,"ECCENTRICITY":0.00018857,"INCLINATION":97.4204,"RA_OF_ASC_NODE":260.6064,"ARG_OF_PERICENTER":264.1193,"MEAN_ANOMALY":95.9827,"EPHEMERIS_TYPE":0,"NORAD_CAT_ID":66712,"ELEMENT_SET_NO":999,"REV_AT_EPOCH":3331,"BSTAR":0.00036449681,"MEAN_MOTION_DOT":0.00007948,"MEAN_MOTION_DDOT":0},{"OBJECT_NAME":"FLOCK 4H-10","OBJECT_ID":"2025-276AZ","EPOCH":"2026-07-06T04:15:31.347360","CLASSIFICATION_TYPE":"U","MEAN_MOTION":15.20083521,"ECCENTRICITY":0.0002937,"INCLINATION":97.4179,"RA_OF_ASC_NODE":260.3482,"ARG_OF_PERICENTER":304.921,"MEAN_ANOMALY":55.1749,"EPHEMERIS_TYPE":0,"NORAD_CAT_ID":66713,"ELEMENT_SET_NO":999,"REV_AT_EPOCH":3330,"BSTAR":0.00034524277,"MEAN_MOTION_DOT":0.00007389,"MEAN_MOTION_DDOT":0},{"OBJECT_NAME":"FLOCK 4H-11","OBJECT_ID":"2025-276BA","EPOCH":"2026-07-06T03:43:39.620352","CLASSIFICATION_TYPE":"U","MEAN_MOTION":15.2316399,"ECCENTRICITY":0.00013115,"INCLINATION":97.4187,"RA_OF_ASC_NODE":260.8761,"ARG_OF_PERICENTER":312.5796,"MEAN_ANOMALY":47.533,"EPHEMERIS_TYPE":0,"NORAD_CAT_ID":66714,"ELEMENT_SET_NO":999,"REV_AT_EPOCH":3333,"BSTAR":0.00064377321,"MEAN_MOTION_DOT":0.00015159,"MEAN_MOTION_DDOT":0},{"OBJECT_NAME":"FLOCK 4H-12","OBJECT_ID":"2025-276BB","EPOCH":"2026-07-06T03:26:31.142400","CLASSIFICATION_TYPE":"U","MEAN_MOTION":15.20733287,"ECCENTRICITY":0.00009007,"INCLINATION":97.4177,"RA_OF_ASC_NODE":260.5325,"ARG_OF_PERICENTER":217.8728,"MEAN_ANOMALY":142.2445,"EPHEMERIS_TYPE":0,"NORAD_CAT_ID":66715,"ELEMENT_SET_NO":999,"REV_AT_EPOCH":3362,"BSTAR":0.00036902089,"MEAN_MOTION_DOT":0.00008054,"MEAN_MOTION_DDOT":0},{"OBJECT_NAME":"FLOCK 4H-13","OBJECT_ID":"2025-276BC","EPOCH":"2026-07-06T04:19:48.283680","CLASSIFICATION_TYPE":"U","MEAN_MOTION":15.20834304,"ECCENTRICITY":0.00012334,"INCLINATION":97.4214,"RA_OF_ASC_NODE":260.7371,"ARG_OF_PERICENTER":152.3563,"MEAN_ANOMALY":207.7739,"EPHEMERIS_TYPE":0,"NORAD_CAT_ID":66716,"ELEMENT_SET_NO":999,"REV_AT_EPOCH":3332,"BSTAR":0.0002628713,"MEAN_MOTION_DOT":0.00005733,"MEAN_MOTION_DDOT":0},{"OBJECT_NAME":"FLOCK 4H-14","OBJECT_ID":"2025-276BD","EPOCH":"2026-07-06T03:26:41.578656","CLASSIFICATION_TYPE":"U","MEAN_MOTION":15.2128658,"ECCENTRICITY":0.00011824,"INCLINATION":97.4194,"RA_OF_ASC_NODE":260.7433,"ARG_OF_PERICENTER":148.5629,"MEAN_ANOMALY":211.5678,"EPHEMERIS_TYPE":0,"NORAD_CAT_ID":66717,"ELEMENT_SET_NO":999,"REV_AT_EPOCH":3257,"BSTAR":0.00035838824,"MEAN_MOTION_DOT":0.00007947,"MEAN_MOTION_DDOT":0}]}
